[{"OBJECT_NAME":"STARLINK-34579","OBJECT_ID":"2025-157X","EPOCH":"2026-03-09T22:49:43.544352","MEAN_MOTION":15.30206342,"ECCENTRICITY":0.0001099,"INCLINATION":53.1613,"RA_OF_ASC_NODE":344.4668,"ARG_OF_PERICENTER":61.8977,"MEAN_ANOMALY":298.2135,"EPHEMERIS_TYPE":0,"CLASSIFICATION_TYPE":"U","NORAD_CAT_ID":64925,"ELEMENT_SET_NO":999,"REV_AT_EPOCH":3616,"BSTAR":0.00089641284,"MEAN_MOTION_DOT":0.00026289,"MEAN_MOTION_DDOT":0},{"OBJECT_NAME":"OBJECT BC","OBJECT_ID":"2025-313BC","EPOCH":"2026-03-09T04:33:08.504064","MEAN_MOTION":15.29126358,"ECCENTRICITY":0.00084789,"INCLINATION":97.3985,"RA_OF_ASC_NODE":144.811,"ARG_OF_PERICENTER":328.9209,"MEAN_ANOMALY":31.1528,"EPHEMERIS_TYPE":0,"CLASSIFICATION_TYPE":"U","NORAD_CAT_ID":67298,"ELEMENT_SET_NO":999,"REV_AT_EPOCH":789,"BSTAR":0.0026410397,"MEAN_MOTION_DOT":0.00075331,"MEAN_MOTION_DDOT":0}]
